NORAD_CAT_ID,OBJECT_NAME,OBJECT_TYPE,EPOCH,MEAN_MOTION,ECCENTRICITY,INCLINATION,RA_OF_ASC_NODE,ARG_OF_PERICENTER,MEAN_ANOMALY,BSTAR,MEAN_MOTION_DOT,MEAN_MOTION_DDOT,TLE_LINE0,TLE_LINE1,TLE_LINE2,SEMIMAJOR_AXIS,PERIOD,APOGEE,PERIGEE,DECAYED
49750.0,STARLINK-3236,PAYLOAD,2023-05-18 04:55:30,15.08833845,0.0001237,53.2178,77.1984,96.3194,263.7939,4.4231e-05,4.16e-06,0.0,0 STARLINK-3236,1 49750U 21115AC  23138.20521892  .00000416  00000-0  44231-4 0  9990,2 49750  53.2178  77.1984 0001237  96.3194 263.7939 15.08833845 80578,6917.899,95.438,540.62,538.908,0.0
49750.0,STARLINK-3236,PAYLOAD,2023-05-18 14:27:49,15.08838376,0.0001216,53.2178,75.4137,93.1185,266.9946,1.8643e-05,9e-08,0.0,0 STARLINK-3236,1 49750U 21115AC  23138.60265846  .00000009  00000-0  18643-4 0  9994,2 49750  53.2178  75.4137 0001216  93.1185 266.9946 15.08838376 80635,6917.885,95.438,540.592,538.909,0.0
49750.0,STARLINK-3236,PAYLOAD,2023-05-19 04:46:17,15.08845919,0.0001228,53.218,72.7375,94.8244,265.2888,7.578e-05,9.19e-06,0.0,0 STARLINK-3236,1 49750U 21115AC  23139.19881149  .00000919  00000-0  75780-4 0  9994,2 49750  53.2180  72.7375 0001228  94.8244 265.2888 15.08845919 81830,6917.862,95.437,540.577,538.878,0.0
49750.0,STARLINK-3236,PAYLOAD,2023-05-20 03:01:41,15.08839483,0.0001238,53.2187,68.5698,106.7453,253.3675,0.0001094,1.454e-05,0.0,0 STARLINK-3236,1 49750U 21115AC  23140.12617393  .00001454  00000-0  10940-3 0  9998,2 49750  53.2187  68.5698 0001238 106.7453 253.3675 15.08839483 81970,6917.882,95.438,540.603,538.891,0.0
49750.0,STARLINK-3236,PAYLOAD,2023-05-21 04:27:49,15.08861113,0.0001308,53.2181,63.8102,105.9742,254.1394,0.00013663,1.888e-05,0.0,0 STARLINK-3236,1 49750U 21115AC  23141.18599350  .00001888  00000-0  13663-3 0  9993,2 49750  53.2181  63.8102 0001308 105.9742 254.1394 15.08861113 82133,6917.816,95.436,540.586,538.776,0.0
49750.0,STARLINK-3236,PAYLOAD,2023-05-22 04:18:40,15.08823942,0.0001365,53.2186,59.3534,82.1437,277.971,-0.00016155,-2.857e-05,0.0,0 STARLINK-3236,1 49750U 21115AC  23142.17963485 -.00002857  00000-0 -16155-3 0  9995,2 49750  53.2186  59.3534 0001365  82.1437 277.9710 15.08823942 82286,6917.929,95.439,540.739,538.85,0.0
49750.0,STARLINK-3236,PAYLOAD,2023-05-23 00:58:39,15.08848577,0.0001335,53.2176,55.4926,81.444,278.6703,-0.0001182,-2.169e-05,0.0,0 STARLINK-3236,1 49750U 21115AC  23143.04073956 -.00002169  00000-0 -11820-3 0  9997,2 49750  53.2176  55.4926 0001335  81.4440 278.6703 15.08848577 82416,6917.854,95.437,540.643,538.796,0.0
49750.0,STARLINK-3236,PAYLOAD,2023-05-24 04:00:12,15.08844311,0.0001358,53.2177,50.4343,79.7182,280.3963,0.00033235,5.006e-05,0.0,0 STARLINK-3236,1 49750U 21115AC  23144.16681675  .00005006  00000-0  33235-3 0  9999,2 49750  53.2177  50.4343 0001358  79.7182 280.3963 15.08844311 82581,6917.867,95.437,540.672,538.793,0.0
49750.0,STARLINK-3236,PAYLOAD,2023-05-25 21:20:15,15.08847132,0.0001364,53.2183,42.7046,101.4165,258.6981,-2.4319e-05,-6.75e-06,0.0,0 STARLINK-3236,1 49750U 21115AC  23145.88906426 -.00000675  00000-0 -24319-4 0  9996,2 49750  53.2183  42.7046 0001364 101.4165 258.6981 15.08847132 81731,6917.859,95.437,540.667,538.78,0.0
49750.0,STARLINK-3236,PAYLOAD,2023-05-26 03:41:47,15.08843016,0.0001414,53.2175,41.5139,110.2167,249.8977,0.00014847,2.076e-05,0.0,0 STARLINK-3236,1 49750U 21115AC  23146.15402172  .00002076  00000-0  14847-3 0  9995,2 49750  53.2175  41.5139 0001414 110.2167 249.8977 15.08843016 82889,6917.871,95.437,540.714,538.758,0.0
49750.0,STARLINK-3236,PAYLOAD,2023-05-26 21:11:02,15.08837183,0.0001234,53.2184,38.2401,102.2139,257.8992,4.6379e-05,4.5e-06,0.0,0 STARLINK-3236,1 49750U 21115AC  23146.88266834  .00000450  00000-0  46379-4 0  9998,2 49750  53.2184  38.2401 0001234 102.2139 257.8992 15.08837183 81887,6917.889,95.438,540.608,538.9,0.0
49750.0,STARLINK-3236,PAYLOAD,2023-05-27 01:57:11,15.08842641,0.0001304,53.2187,37.3475,108.7817,251.3317,-2.046e-06,-3.2e-06,0.0,0 STARLINK-3236,1 49750U 21115AC  23147.08138511 -.00000320  00000-0 -20460-5 0  9993,2 49750  53.2187  37.3475 0001304 108.7817 251.3317 15.08842641 83026,6917.872,95.437,540.639,538.835,0.0
49750.0,STARLINK-3236,PAYLOAD,2023-05-27 22:37:12,15.08844248,0.0001173,53.2183,33.4841,96.2562,263.8564,6.3803e-05,7.28e-06,0.0,0 STARLINK-3236,1 49750U 21115AC  23147.94250489  .00000728  00000-0  63803-4 0  9994,2 49750  53.2183  33.4841 0001173  96.2562 263.8564 15.08844248 82046,6917.867,95.437,540.544,538.921,0.0
49750.0,STARLINK-3236,PAYLOAD,2023-05-28 01:47:58,15.08846719,0.0001212,53.2182,32.8893,97.0709,263.0421,8.7832e-05,1.111e-05,0.0,0 STARLINK-3236,1 49750U 21115AC  23148.07498272  .00001111  00000-0  87832-4 0  9998,2 49750  53.2182  32.8893 0001212  97.0709 263.0421 15.08846719 82062,6917.86,95.437,540.563,538.886,0.0
49750.0,STARLINK-3236,PAYLOAD,2023-05-28 22:27:59,15.08844335,0.0001222,53.2183,29.0224,97.069,263.0442,0.00010893,1.446e-05,0.0,0 STARLINK-3236,1 49750U 21115AC  23148.93610379  .00001446  00000-0  10893-3 0  9990,2 49750  53.2183  29.0224 0001222  97.0690 263.0442 15.08844335 82198,6917.867,95.437,540.578,538.887,0.0
49750.0,STARLINK-3236,PAYLOAD,2023-05-29 15:57:14,15.08829828,0.0001247,53.2183,25.7515,100.3308,259.7824,0.00015403,2.164e-05,0.0,0 STARLINK-3236,1 49750U 21115AC  23149.66475200  .00002164  00000-0  15403-3 0  9993,2 49750  53.2183  25.7515 0001247 100.3308 259.7824 15.08829828 83417,6917.911,95.438,540.639,538.914,0.0
49750.0,STARLINK-3236,PAYLOAD,2023-05-29 22:18:46,15.08838638,0.000112,53.2178,24.5618,99.5699,260.542,2.7387e-05,1.48e-06,0.0,0 STARLINK-3236,1 49750U 21115AC  23149.92970874  .00000148  00000-0  27387-4 0  9994,2 49750  53.2178  24.5618 0001120  99.5699 260.5420 15.08838638 82346,6917.885,95.438,540.524,538.975,0.0
49750.0,STARLINK-3236,PAYLOAD,2023-05-30 01:29:33,15.08837859,0.0001221,53.219,23.9673,102.1923,257.9206,-1.7345e-05,-5.64e-06,0.0,0 STARLINK-3236,1 49750U 21115AC  23150.06219059 -.00000564  00000-0 -17345-4 0  9999,2 49750  53.2190  23.9673 0001221 102.1923 257.9206 15.08837859 82365,6917.887,95.438,540.597,538.907,0.0
49750.0,STARLINK-3236,PAYLOAD,2023-05-30 18:58:47,15.08831075,0.0001128,53.2185,20.6969,100.9661,259.1458,0.00012938,1.771e-05,0.0,0 STARLINK-3236,1 49750U 21115AC  23150.79083050  .00001771  00000-0  12938-3 0  9990,2 49750  53.2185  20.6969 0001128 100.9661 259.1458 15.08831075 83584,6917.908,95.438,540.553,538.992,0.0
49750.0,STARLINK-3236,PAYLOAD,2023-05-30 22:09:33,15.08846114,9.43e-05,53.2174,20.1041,86.4577,273.6523,-2.8605e-06,-3.33e-06,0.0,0 STARLINK-3236,1 49750U 21115AC  23150.92330655 -.00000333  00000-0 -28605-5 0  9996,2 49750  53.2174  20.1041 0000943  86.4577 273.6523 15.08846114 82499,6917.862,95.437,540.379,539.074,0.0
49750.0,STARLINK-3236,PAYLOAD,2023-05-31 01:20:19,15.08847946,9.62e-05,53.2174,19.509,87.6969,272.4134,2.2843e-05,7.6e-07,0.0,0 STARLINK-3236,1 49750U 21115AC  23151.05578431  .00000076  00000-0  22843-4 0  9996,2 49750  53.2174  19.5090 0000962  87.6969 272.4134 15.08847946 83629,6917.856,95.437,540.387,539.056,0.0
49750.0,STARLINK-3236,PAYLOAD,2023-05-31 18:49:34,15.08836572,9.6e-05,53.217,16.2379,93.1124,266.9978,8.6846e-05,1.095e-05,0.0,0 STARLINK-3236,1 49750U 21115AC  23151.78443095  .00001095  00000-0  86846-4 0  9998,2 49750  53.2170  16.2379 0000960  93.1124 266.9978 15.08836572 83731,6917.891,95.438,540.42,539.092,0.0
49750.0,STARLINK-3236,PAYLOAD,2023-05-31 20:24:57,15.08838083,0.0001049,53.2179,15.9405,94.1024,266.0088,0.00010566,1.394e-05,0.0,0 STARLINK-3236,1 49750U 21115AC  23151.85066977  .00001394  00000-0  10566-3 0  9993,2 49750  53.2179  15.9405 0001049  94.1024 266.0088 15.08838083 82635,6917.886,95.438,540.477,539.026,0.0
49750.0,STARLINK-3236,PAYLOAD,2023-06-01 21:51:08,15.08841873,0.0001066,53.2179,11.1829,90.144,269.9674,3.9741e-05,3.45e-06,0.0,0 STARLINK-3236,1 49750U 21115AC  23152.91051073  .00000345  00000-0  39741-4 0  9994,2 49750  53.2179  11.1829 0001066  90.1440 269.9674 15.08841873 83905,6917.875,95.437,540.477,539.002,0.0
49750.0,STARLINK-3236,PAYLOAD,2023-06-01 23:26:30,15.0884715,0.0001147,53.2175,10.8865,105.7813,254.3305,5.4803e-05,5.85e-06,0.0,0 STARLINK-3236,1 49750U 21115AC  23152.97674695  .00000585  00000-0  54803-4 0  9993,2 49750  53.2175  10.8865 0001147 105.7813 254.3305 15.08847150 82805,6917.859,95.437,540.517,538.93,0.0
49750.0,STARLINK-3236,PAYLOAD,2023-06-02 18:31:09,15.08835849,0.0001047,53.217,7.3197,110.9562,249.1542,1.2243e-05,-9.3e-07,0.0,0 STARLINK-3236,1 49750U 21115AC  23153.77163686 -.00000093  00000-0  12243-4 0  9992,2 49750  53.2170   7.3197 0001047 110.9562 249.1542 15.08835849 84031,6917.893,95.438,540.482,539.034,0.0
49750.0,STARLINK-3236,PAYLOAD,2023-06-03 13:35:46,15.08839384,9.44e-05,53.2174,3.751,117.6455,242.4633,6.1769e-05,6.95e-06,0.0,0 STARLINK-3236,1 49750U 21115AC  23154.56651438  .00000695  00000-0  61769-4 0  9991,2 49750  53.2174   3.7510 0000944 117.6455 242.4633 15.08839384 83049,6917.882,95.438,540.4,539.094,0.0
49750.0,STARLINK-3236,PAYLOAD,2023-06-03 21:32:42,15.08844212,9.8e-05,53.218,2.2635,85.3462,274.7642,6.901e-05,8.11e-06,0.0,0 STARLINK-3236,1 49750U 21115AC  23154.89771283  .00000811  00000-0  69010-4 0  9995,2 49750  53.2180   2.2635 0000980  85.3462 274.7642 15.08844212 83096,6917.868,95.437,540.41,539.055,0.0
49750.0,STARLINK-3236,PAYLOAD,2023-06-04 08:40:24,15.08837193,0.0001079,53.218,0.1804,94.1778,265.9337,6.3862e-05,7.29e-06,0.0,0 STARLINK-3236,1 49750U 21115AC  23155.36139742  .00000729  00000-0  63862-4 0  9993,2 49750  53.2180   0.1804 0001079  94.1778 265.9337 15.08837193 84273,6917.889,95.438,540.5,539.008,0.0
49750.0,STARLINK-3236,PAYLOAD,2023-06-04 13:26:34,15.08836389,0.0001016,53.2179,359.2893,88.136,271.9749,7.34e-05,8.8e-06,0.0,0 STARLINK-3236,1 49750U 21115AC  23155.56011836  .00000880  00000-0  73400-4 0  9995,2 49750  53.2179 359.2893 0001016  88.1360 271.9749 15.08836389 83198,6917.891,95.438,540.459,539.054,0.0
